start=new Date('2022-04-08T00:00:00.000Z').valueOf();
sats=[{"RA_OF_ASC_NODE":"104.8333","MEAN_MOTION_DDOT":"0.0000000000000","REV_AT_EPOCH":"8396","OBJECT_NAME":"STARLINK-1741","SEMIMAJOR_AXIS":"6925.329","DECAY_DATE":null,"TIME_SYSTEM":"UTC","FILE":"3392478","ECCENTRICITY":"0.00016410","ELEMENT_SET_NO":"999","REF_FRAME":"TEME","ARG_OF_PERICENTER":"60.9974","CENTER_NAME":"EARTH","TLE_LINE1":"1 46567U 20070AM  22097.75347030  .00001294  00000-0  10572-3 0  9990","APOAPSIS":"548.330","TLE_LINE2":"2 46567  53.0521 104.8333 0001641  60.9974 299.1180 15.06406434 83964","RCS_SIZE":"LARGE","MEAN_ANOMALY":"299.1180","OBJECT_ID":"2020-070AM","MEAN_MOTION_DOT":"0.00001294","PERIOD":"95.592","SITE":"AFETR","MEAN_ELEMENT_THEORY":"SGP4","GP_ID":"200700085","MEAN_MOTION":"15.06406434","INCLINATION":"53.0521","BSTAR":"0.00010572000000","PERIAPSIS":"546.057","EPHEMERIS_TYPE":"0","CLASSIFICATION_TYPE":"U","LAUNCH_DATE":"2020-10-06","NORAD_CAT_ID":"46567","EPOCH":"2022-04-07T18:04:59.833920","COUNTRY_CODE":"US","OBJECT_TYPE":"PAYLOAD"},{"INCLINATION":"53.0299","PERIAPSIS":"256.930","BSTAR":"0.00595310000000","LAUNCH_DATE":"2020-10-06","CLASSIFICATION_TYPE":"U","EPHEMERIS_TYPE":"0","OBJECT_TYPE":"PAYLOAD","COUNTRY_CODE":"US","EPOCH":"2022-04-08T03:57:24.754176","NORAD_CAT_ID":"46568","TLE_LINE2":"2 46568  53.0299  54.2959 0006554 164.6142 301.9654 16.04752008 84729","TLE_LINE1":"1 46568U 20070AN  22098.16486984  .03473666  16514-1  59531-2 0  9993","APOAPSIS":"265.633","CENTER_NAME":"EARTH","ARG_OF_PERICENTER":"164.6142","OBJECT_ID":"2020-070AN","MEAN_ANOMALY":"301.9654","RCS_SIZE":"LARGE","GP_ID":"200704699","MEAN_ELEMENT_THEORY":"SGP4","SITE":"AFETR","MEAN_MOTION_DOT":"0.03473666","PERIOD":"89.733","MEAN_MOTION":"16.04752008","ECCENTRICITY":"0.00065540","FILE":"3392552","TIME_SYSTEM":"UTC","ELEMENT_SET_NO":"999","REF_FRAME":"TEME","RA_OF_ASC_NODE":"54.2959","REV_AT_EPOCH":"8472","MEAN_MOTION_DDOT":"0.0165140000000","OBJECT_NAME":"STARLINK-1743","DECAY_DATE":null,"SEMIMAJOR_AXIS":"6639.416"},{"SITE":"AFETR","MEAN_MOTION_DOT":"0.00001470","PERIOD":"95.592","GP_ID":"200701587","MEAN_ELEMENT_THEORY":"SGP4","MEAN_MOTION":"15.06407124","ARG_OF_PERICENTER":"53.9480","CENTER_NAME":"EARTH","TLE_LINE2":"2 46569  53.0535 104.4570 0001766  53.9480 306.1673 15.06407124 83976","TLE_LINE1":"1 46569U 20070AP  22097.83456600  .00001470  00000-0  11754-3 0  9994","APOAPSIS":"548.415","OBJECT_ID":"2020-070AP","MEAN_ANOMALY":"306.1673","RCS_SIZE":"LARGE","CLASSIFICATION_TYPE":"U","EPHEMERIS_TYPE":"0","LAUNCH_DATE":"2020-10-06","NORAD_CAT_ID":"46569","OBJECT_TYPE":"PAYLOAD","COUNTRY_CODE":"US","EPOCH":"2022-04-07T20:01:46.502400","INCLINATION":"53.0535","PERIAPSIS":"545.969","BSTAR":"0.00011754000000","OBJECT_NAME":"STARLINK-1747","SEMIMAJOR_AXIS":"6925.327","DECAY_DATE":null,"RA_OF_ASC_NODE":"104.4570","MEAN_MOTION_DDOT":"0.0000000000000","REV_AT_EPOCH":"8397","REF_FRAME":"TEME","ELEMENT_SET_NO":"999","TIME_SYSTEM":"UTC","ECCENTRICITY":"0.00017660","FILE":"3392478"},{"OBJECT_NAME":"STARLINK-1748","DECAY_DATE":null,"SEMIMAJOR_AXIS":"6925.388","RA_OF_ASC_NODE":"104.5865","REV_AT_EPOCH":"8396","MEAN_MOTION_DDOT":"0.0000000000000","REF_FRAME":"TEME","ELEMENT_SET_NO":"999","FILE":"3392478","ECCENTRICITY":"0.00021510","TIME_SYSTEM":"UTC","GP_ID":"200700336","MEAN_ELEMENT_THEORY":"SGP4","SITE":"AFETR","PERIOD":"95.593","MEAN_MOTION_DOT":"0.00004746","MEAN_MOTION":"15.06387147","TLE_LINE2":"2 46570  53.0562 104.5865 0002151  63.5660 296.5550 15.06387147 83969","TLE_LINE1":"1 46570U 20070AQ  22097.80875657  .00004746  00000-0  33745-3 0  9993","APOAPSIS":"548.743","CENTER_NAME":"EARTH","ARG_OF_PERICENTER":"63.5660","OBJECT_ID":"2020-070AQ","MEAN_ANOMALY":"296.5550","RCS_SIZE":"LARGE","LAUNCH_DATE":"2020-10-06","CLASSIFICATION_TYPE":"U","EPHEMERIS_TYPE":"0","COUNTRY_CODE":"US","OBJECT_TYPE":"PAYLOAD","EPOCH":"2022-04-07T19:24:36.567648","NORAD_CAT_ID":"46570","INCLINATION":"53.0562","PERIAPSIS":"545.763","BSTAR":"0.00033745000000"},{"PERIAPSIS":"310.652","BSTAR":"0.00114380000000","INCLINATION":"53.0479","NORAD_CAT_ID":"46571","OBJECT_TYPE":"PAYLOAD","COUNTRY_CODE":"US","EPOCH":"2022-04-07T13:33:56.645280","CLASSIFICATION_TYPE":"U","EPHEMERIS_TYPE":"0","LAUNCH_DATE":"2020-10-06","OBJECT_ID":"2020-070AR","RCS_SIZE":"LARGE","MEAN_ANOMALY":"271.1070","CENTER_NAME":"EARTH","ARG_OF_PERICENTER":"89.0354","TLE_LINE2":"2 46571  53.0479  48.5050 0003497  89.0354 271.1070 15.86185231 84737","TLE_LINE1":"1 46571U 20070AR  22097.56523895  .00299802  00000-0  11438-2 0  9994","APOAPSIS":"315.331","MEAN_MOTION":"15.86185231","SITE":"AFETR","PERIOD":"90.784","MEAN_MOTION_DOT":"0.00299802","GP_ID":"200674148","MEAN_ELEMENT_THEORY":"SGP4","TIME_SYSTEM":"UTC","ECCENTRICITY":"0.00034970","FILE":"3392238","REF_FRAME":"TEME","ELEMENT_SET_NO":"999","MEAN_MOTION_DDOT":"0.0000000000000","REV_AT_EPOCH":"8473","RA_OF_ASC_NODE":"48.5050","SEMIMAJOR_AXIS":"6691.126","DECAY_DATE":null,"OBJECT_NAME":"STARLINK-1753"},{"REF_FRAME":"TEME","ELEMENT_SET_NO":"999","ECCENTRICITY":"0.00016830","FILE":"3392478","TIME_SYSTEM":"UTC","DECAY_DATE":null,"SEMIMAJOR_AXIS":"6925.338","OBJECT_NAME":"STARLINK-1531","REV_AT_EPOCH":"8368","MEAN_MOTION_DDOT":"0.0000000000000","RA_OF_ASC_NODE":"124.6020","EPOCH":"2022-04-07T19:21:58.418496","OBJECT_TYPE":"PAYLOAD","COUNTRY_CODE":"US","NORAD_CAT_ID":"46572","LAUNCH_DATE":"2020-10-06","EPHEMERIS_TYPE":"0","CLASSIFICATION_TYPE":"U","BSTAR":"0.00010245000000","PERIAPSIS":"546.038","INCLINATION":"53.0539","MEAN_MOTION":"15.06403357","MEAN_ELEMENT_THEORY":"SGP4","GP_ID":"200700832","MEAN_MOTION_DOT":"0.00001245","PERIOD":"95.592","SITE":"AFETR","RCS_SIZE":"LARGE","MEAN_ANOMALY":"305.2759","OBJECT_ID":"2020-070AS","APOAPSIS":"548.369","TLE_LINE1":"1 46572U 20070AS  22097.80692614  .00001245  00000-0  10245-3 0  9996","TLE_LINE2":"2 46572  53.0539 124.6020 0001683  54.8388 305.2759 15.06403357 83680","CENTER_NAME":"EARTH","ARG_OF_PERICENTER":"54.8388"},{"ELEMENT_SET_NO":"999","REF_FRAME":"TEME","TIME_SYSTEM":"UTC","ECCENTRICITY":"0.00016160","FILE":"3392206","SEMIMAJOR_AXIS":"6925.347","DECAY_DATE":null,"OBJECT_NAME":"STARLINK-1650","MEAN_MOTION_DDOT":"0.0000000000000","REV_AT_EPOCH":"8383","RA_OF_ASC_NODE":"111.7662","NORAD_CAT_ID":"46573","EPOCH":"2022-04-07T07:40:41.127744","COUNTRY_CODE":"US","OBJECT_TYPE":"PAYLOAD","EPHEMERIS_TYPE":"0","CLASSIFICATION_TYPE":"U","LAUNCH_DATE":"2020-10-06","BSTAR":"0.00039446000000","PERIAPSIS":"546.093","INCLINATION":"53.0530","MEAN_MOTION":"15.06400575","PERIOD":"95.592","MEAN_MOTION_DOT":"0.00005599","SITE":"AFETR","MEAN_ELEMENT_THEORY":"SGP4","GP_ID":"200673722","RCS_SIZE":"LARGE","MEAN_ANOMALY":"302.7755","OBJECT_ID":"2020-070AT","ARG_OF_PERICENTER":"57.3389","CENTER_NAME":"EARTH","APOAPSIS":"548.331","TLE_LINE1":"1 46573U 20070AT  22097.31992046  .00005599  00000-0  39446-3 0  9995","TLE_LINE2":"2 46573  53.0530 111.7662 0001616  57.3389 302.7755 15.06400575 83830"},{"OBJECT_NAME":"STARLINK-1660","SEMIMAJOR_AXIS":"6925.345","DECAY_DATE":null,"RA_OF_ASC_NODE":"109.7592","MEAN_MOTION_DDOT":"0.0000000000000","REV_AT_EPOCH":"8389","ELEMENT_SET_NO":"999","REF_FRAME":"TEME","TIME_SYSTEM":"UTC","FILE":"3392478","ECCENTRICITY":"0.00015910","SITE":"AFETR","PERIOD":"95.592","MEAN_MOTION_DOT":"0.00000287","GP_ID":"200699836","MEAN_ELEMENT_THEORY":"SGP4","MEAN_MOTION":"15.06401103","CENTER_NAME":"EARTH","ARG_OF_PERICENTER":"69.4293","TLE_LINE2":"2 46574  53.0547 109.7592 0001591  69.4293 290.6867 15.06401103 83891","APOAPSIS":"548.312","TLE_LINE1":"1 46574U 20070AU  22097.76960337  .00000287  00000-0  38192-4 0  9990","OBJECT_ID":"2020-070AU","RCS_SIZE":"LARGE","MEAN_ANOMALY":"290.6867","CLASSIFICATION_TYPE":"U","EPHEMERIS_TYPE":"0","LAUNCH_DATE":"2020-10-06","NORAD_CAT_ID":"46574","OBJECT_TYPE":"PAYLOAD","COUNTRY_CODE":"US","EPOCH":"2022-04-07T18:28:13.731168","INCLINATION":"53.0547","PERIAPSIS":"546.108","BSTAR":"0.00003819200000"},{"SEMIMAJOR_AXIS":"6925.323","DECAY_DATE":null,"OBJECT_NAME":"STARLINK-1675","MEAN_MOTION_DDOT":"0.0000000000000","REV_AT_EPOCH":"8423","RA_OF_ASC_NODE":"85.0765","ELEMENT_SET_NO":"999","REF_FRAME":"TEME","TIME_SYSTEM":"UTC","ECCENTRICITY":"0.00016370","FILE":"3392215","MEAN_MOTION":"15.06408330","PERIOD":"95.592","MEAN_MOTION_DOT":"0.00001040","SITE":"AFETR","MEAN_ELEMENT_THEORY":"SGP4","GP_ID":"200673800","RCS_SIZE":"LARGE","MEAN_ANOMALY":"297.5658","OBJECT_ID":"2020-070AV","ARG_OF_PERICENTER":"62.5498","CENTER_NAME":"EARTH","TLE_LINE1":"1 46575U 20070AV  22097.69265056  .00001040  00000-0  88710-4 0  9998","APOAPSIS":"548.322","TLE_LINE2":"2 46575  53.0587  85.0765 0001637  62.5498 297.5658 15.06408330 84238","NORAD_CAT_ID":"46575","EPOCH":"2022-04-07T16:37:25.008384","OBJECT_TYPE":"PAYLOAD","COUNTRY_CODE":"US","EPHEMERIS_TYPE":"0","CLASSIFICATION_TYPE":"U","LAUNCH_DATE":"2020-10-06","BSTAR":"0.00008871000000","PERIAPSIS":"546.054","INCLINATION":"53.0587"},{"RCS_SIZE":"LARGE","MEAN_ANOMALY":"311.4415","OBJECT_ID":"2020-070AW","APOAPSIS":"548.365","TLE_LINE1":"1 46576U 20070AW  22097.76222668  .00000444  00000-0  48682-4 0  9990","TLE_LINE2":"2 46576  53.0539 109.7816 0001686  48.6719 311.4415 15.06405358 83897","CENTER_NAME":"EARTH","ARG_OF_PERICENTER":"48.6719","MEAN_MOTION":"15.06405358","MEAN_ELEMENT_THEORY":"SGP4","GP_ID":"200701333","MEAN_MOTION_DOT":"0.00000444","PERIOD":"95.592","SITE":"AFETR","BSTAR":"0.00004868200000","PERIAPSIS":"546.030","INCLINATION":"53.0539","EPOCH":"2022-04-07T18:17:36.385152","COUNTRY_CODE":"US","OBJECT_TYPE":"PAYLOAD","NORAD_CAT_ID":"46576","LAUNCH_DATE":"2020-10-06","EPHEMERIS_TYPE":"0","CLASSIFICATION_TYPE":"U","REV_AT_EPOCH":"8389","MEAN_MOTION_DDOT":"0.0000000000000","RA_OF_ASC_NODE":"109.7816","DECAY_DATE":null,"SEMIMAJOR_AXIS":"6925.332","OBJECT_NAME":"STARLINK-1677","FILE":"3392478","ECCENTRICITY":"0.00016860","TIME_SYSTEM":"UTC","REF_FRAME":"TEME","ELEMENT_SET_NO":"999"}];
